ORBCOMM FM24 [-]        
1 25478U 98053D   23304.43279745  .00001780  00000+0  67052-3 0  9992
2 25478  45.0084 201.2553 0000815  56.4177 303.6748 14.34835113311932
ORBCOMM FM25 [-]        
1 25479U 98053E   23304.39685659  .00001707  00000+0  64535-3 0  9995
2 25479  45.0075 199.6590 0002596 139.5167 220.5873 14.34814707312229
ORBCOMM FM26 [-]        
1 25480U 98053F   23304.40684430  .00001409  00000+0  54619-3 0  9996
2 25480  45.0069 193.0113 0004617 171.6888 188.4036 14.34375245312172
ORBCOMM FM27 [+]        
1 25481U 98053G   23304.79966652  .00001695  00000+0  64161-3 0  9998
2 25481  45.0059 198.0158 0001482 342.2833  17.7962 14.34791513312250
ORBCOMM FM28 [-]        
1 25482U 98053H   23304.50034768  .00001468  00000+0  55680-3 0  9996
2 25482  45.0054 138.5772 0003690 192.4096 167.6661 14.35274871313005
ORBCOMM FM30 [-]        
1 25980U 99065A   23304.59605543  .00001583  00000+0  60564-3 0  9992
2 25980  45.0338  17.4590 0007620 265.6606  94.3371 14.34506593248990
ORBCOMM FM31 [-]        
1 25981U 99065B   23304.56338227  .00001624  00000+0  61966-3 0  9995
2 25981  45.0252  11.4615 0004544 277.7165  82.3166 14.34536121248544
ORBCOMM FM32 [+]        
1 25982U 99065C   23304.54518924  .00001508  00000+0  59110-3 0  9997
2 25982  45.0177  23.9402 0006466 284.5312  75.4817 14.33475849249194
